[{"OBJECT_NAME":"STARLINK-30714","OBJECT_ID":"2023-148E","EPOCH":"2026-03-09T06:26:10.169664","MEAN_MOTION":15.30192407,"ECCENTRICITY":0.00010686,"INCLINATION":53.1611,"RA_OF_ASC_NODE":26.4425,"ARG_OF_PERICENTER":87.7795,"MEAN_ANOMALY":272.3328,"EPHEMERIS_TYPE":0,"CLASSIFICATION_TYPE":"U","NORAD_CAT_ID":57939,"ELEMENT_SET_NO":999,"REV_AT_EPOCH":13835,"BSTAR":-1.9342131e-5,"MEAN_MOTION_DOT":-9.32e-6,"MEAN_MOTION_DDOT":0},{"OBJECT_NAME":"TIANMU-1 22","OBJECT_ID":"2023-208D","EPOCH":"2026-03-09T22:39:05.738688","MEAN_MOTION":15.29457749,"ECCENTRICITY":0.00031332,"INCLINATION":97.4379,"RA_OF_ASC_NODE":184.9419,"ARG_OF_PERICENTER":351.9312,"MEAN_ANOMALY":8.1877,"EPHEMERIS_TYPE":0,"CLASSIFICATION_TYPE":"U","NORAD_CAT_ID":58663,"ELEMENT_SET_NO":999,"REV_AT_EPOCH":12215,"BSTAR":0.00038239675,"MEAN_MOTION_DOT":0.00010851,"MEAN_MOTION_DDOT":0}]
